{
  "type": "FeatureCollection",
  "features": [
    {
      "type": "Feature",
      "properties": {
        "norad_id": 41866,
        "name": "GOES 16",
        "group": "weather",
        "lat": -0.03615230007878194,
        "lon": 39.747752483822076,
        "alt_km": 35795.77434396146,
        "timestamp": "2025-12-15T04:01:20.086349+00:00",
        "meta_object_name": "GOES 16",
        "meta_object_id": "2016-071A",
        "meta_epoch": "2025-12-14T06:04:24.670848",
        "meta_mean_motion": 1.00271691,
        "meta_eccentricity": 0.00031554,
        "meta_inclination": 0.0669,
        "meta_ra_of_asc_node": 104.3904,
        "meta_arg_of_pericenter": 159.1031,
        "meta_mean_anomaly": 166.1074,
        "meta_ephemeris_type": 0,
        "meta_classification_type": "U",
        "meta_norad_cat_id": 41866,
        "meta_element_set_no": 999,
        "meta_rev_at_epoch": 3324,
        "meta_bstar": 0,
        "meta_mean_motion_dot": -7.3e-07,
        "meta_mean_motion_ddot": 0,
        "tle_line1": "1 41866U 16071A   25348.25306332 -.00000073  00000+0  00000+0 0  9995",
        "tle_line2": "2 41866   0.0669 104.3904 0003155 159.1031 166.1074  1.00271691 33247"
      },
      "geometry": {
        "type": "Point",
        "coordinates": [
          39.747752483822076,
          -0.03615230007878194
        ]
      }
    },
    {
      "type": "Feature",
      "properties": {
        "norad_id": 41882,
        "name": "FENGYUN 4A",
        "group": "weather",
        "lat": -0.2112583705839594,
        "lon": -91.75756662231288,
        "alt_km": 35771.74428126136,
        "timestamp": "2025-12-15T04:01:20.086361+00:00",
        "meta_object_name": "FENGYUN 4A",
        "meta_object_id": "2016-077A",
        "meta_epoch": "2025-12-14T07:09:33.431904",
        "meta_mean_motion": 1.00269016,
        "meta_eccentricity": 0.00047308,
        "meta_inclination": 1.8534,
        "meta_ra_of_asc_node": 82.377,
        "meta_arg_of_pericenter": 145.431,
        "meta_mean_anomaly": 86.618,
        "meta_ephemeris_type": 0,
        "meta_classification_type": "U",
        "meta_norad_cat_id": 41882,
        "meta_element_set_no": 999,
        "meta_rev_at_epoch": 3307,
        "meta_bstar": 0,
        "meta_mean_motion_dot": -3.39e-06,
        "meta_mean_motion_ddot": 0,
        "tle_line1": "1 41882U 16077A   25348.29830361 -.00000339  00000+0  00000+0 0  9992",
        "tle_line2": "2 41882   1.8534  82.3770 0004730 145.4310  86.6180  1.00269016 33072"
      },
      "geometry": {
        "type": "Point",
        "coordinates": [
          -91.75756662231288,
          -0.2112583705839594
        ]
      }
    },
    {
      "type": "Feature",
      "properties": {
        "norad_id": 41884,
        "name": "CYGFM05",
        "group": "weather",
        "lat": -27.005597385315568,
        "lon": -101.88893927892373,
        "alt_km": 418.714038097346,
        "timestamp": "2025-12-15T04:01:20.086375+00:00",
        "meta_object_name": "CYGFM05",
        "meta_object_id": "2016-078A",
        "meta_epoch": "2025-12-14T06:53:54.923136",
        "meta_mean_motion": 15.47708075,
        "meta_eccentricity": 0.00102915,
        "meta_inclination": 34.9603,
        "meta_ra_of_asc_node": 37.0208,
        "meta_arg_of_pericenter": 197.1961,
        "meta_mean_anomaly": 162.8413,
        "meta_ephemeris_type": 0,
        "meta_classification_type": "U",
        "meta_norad_cat_id": 41884,
        "meta_element_set_no": 999,
        "meta_rev_at_epoch": 50000,
        "meta_bstar": 0.0003806598,
        "meta_mean_motion_dot": 0.00020346,
        "meta_mean_motion_ddot": 0,
        "tle_line1": "1 41884U 16078A   25348.28744124  .00020346  00000+0  38066-3 0  9991",
        "tle_line2": "2 41884  34.9603  37.0208 0010291 197.1961 162.8413 15.47708075500003"
      },
      "geometry": {
        "type": "Point",
        "coordinates": [
          -101.88893927892373,
          -27.005597385315568
        ]
      }
    },
    {
      "type": "Feature",
      "properties": {
        "norad_id": 41885,
        "name": "CYGFM04",
        "group": "weather",
        "lat": 23.610063357659655,
        "lon": 147.20861548713094,
        "alt_km": 411.43736795145924,
        "timestamp": "2025-12-15T04:01:20.086386+00:00",
        "meta_object_name": "CYGFM04",
        "meta_object_id": "2016-078B",
        "meta_epoch": "2025-12-14T07:21:03.014496",
        "meta_mean_motion": 15.50439337,
        "meta_eccentricity": 0.00095999,
        "meta_inclination": 34.9358,
        "meta_ra_of_asc_node": 11.6292,
        "meta_arg_of_pericenter": 223.9636,
        "meta_mean_anomaly": 136.0322,
        "meta_ephemeris_type": 0,
        "meta_classification_type": "U",
        "meta_norad_cat_id": 41885,
        "meta_element_set_no": 999,
        "meta_rev_at_epoch": 50018,
        "meta_bstar": 0.000397126,
        "meta_mean_motion_dot": 0.00023384,
        "meta_mean_motion_ddot": 0,
        "tle_line1": "1 41885U 16078B   25348.30628489  .00023384  00000+0  39713-3 0  9995",
        "tle_line2": "2 41885  34.9358  11.6292 0009599 223.9636 136.0322 15.50439337500185"
      },
      "geometry": {
        "type": "Point",
        "coordinates": [
          147.20861548713094,
          23.610063357659655
        ]
      }
    },
    {
      "type": "Feature",
      "properties": {
        "norad_id": 41886,
        "name": "CYGFM02",
        "group": "weather",
        "lat": 10.871553933412235,
        "lon": 168.3076149212683,
        "alt_km": 406.1667246906227,
        "timestamp": "2025-12-15T04:01:20.086397+00:00",
        "meta_object_name": "CYGFM02",
        "meta_object_id": "2016-078C",
        "meta_epoch": "2025-12-14T08:48:19.081728",
        "meta_mean_motion": 15.51827213,
        "meta_eccentricity": 0.00112542,
        "meta_inclination": 34.9446,
        "meta_ra_of_asc_node": 9.5368,
        "meta_arg_of_pericenter": 224.277,
        "meta_mean_anomaly": 135.7053,
        "meta_ephemeris_type": 0,
        "meta_classification_type": "U",
        "meta_norad_cat_id": 41886,
        "meta_element_set_no": 999,
        "meta_rev_at_epoch": 50032,
        "meta_bstar": 0.00040407159,
        "meta_mean_motion_dot": 0.00025031,
        "meta_mean_motion_ddot": 0,
        "tle_line1": "1 41886U 16078C   25348.36688752  .00025031  00000+0  40407-3 0  9994",
        "tle_line2": "2 41886  34.9446   9.5368 0011254 224.2770 135.7053 15.51827213500326"
      },
      "geometry": {
        "type": "Point",
        "coordinates": [
          168.3076149212683,
          10.871553933412235
        ]
      }
    },
    {
      "type": "Feature",
      "properties": {
        "norad_id": 41887,
        "name": "CYGFM01",
        "group": "weather",
        "lat": -34.08717520554153,
        "lon": -42.137011388362794,
        "alt_km": 422.9623402386869,
        "timestamp": "2025-12-15T04:01:20.086408+00:00",
        "meta_object_name": "CYGFM01",
        "meta_object_id": "2016-078D",
        "meta_epoch": "2025-12-14T06:41:40.644960",
        "meta_mean_motion": 15.48289142,
        "meta_eccentricity": 0.00098873,
        "meta_inclination": 34.9434,
        "meta_ra_of_asc_node": 39.415,
        "meta_arg_of_pericenter": 189.5055,
        "meta_mean_anomaly": 170.548,
        "meta_ephemeris_type": 0,
        "meta_classification_type": "U",
        "meta_norad_cat_id": 41887,
        "meta_element_set_no": 999,
        "meta_rev_at_epoch": 49994,
        "meta_bstar": 0.00039179884,
        "meta_mean_motion_dot": 0.00021374,
        "meta_mean_motion_ddot": 0,
        "tle_line1": "1 41887U 16078D   25348.27894265  .00021374  00000+0  39180-3 0  9995",
        "tle_line2": "2 41887  34.9434  39.4150 0009887 189.5055 170.5480 15.48289142499948"
      },
      "geometry": {
        "type": "Point",
        "coordinates": [
          -42.137011388362794,
          -34.08717520554153
        ]
      }
    },
    {
      "type": "Feature",
      "properties": {
        "norad_id": 41888,
        "name": "CYGFM08",
        "group": "weather",
        "lat": -10.894609811571739,
        "lon": 0.5677689730210721,
        "alt_km": 422.2165489751296,
        "timestamp": "2025-12-15T04:01:20.086420+00:00",
        "meta_object_name": "CYGFM08",
        "meta_object_id": "2016-078E",
        "meta_epoch": "2025-12-14T06:27:27.596160",
        "meta_mean_motion": 15.49498594,
        "meta_eccentricity": 0.00117411,
        "meta_inclination": 34.9468,
        "meta_ra_of_asc_node": 22.4535,
        "meta_arg_of_pericenter": 212.449,
        "meta_mean_anomaly": 147.5511,
        "meta_ephemeris_type": 0,
        "meta_classification_type": "U",
        "meta_norad_cat_id": 41888,
        "meta_element_set_no": 999,
        "meta_rev_at_epoch": 50017,
        "meta_bstar": 0.00039919457,
        "meta_mean_motion_dot": 0.00022751,
        "meta_mean_motion_ddot": 0,
        "tle_line1": "1 41888U 16078E   25348.26906940  .00022751  00000+0  39919-3 0  9999",
        "tle_line2": "2 41888  34.9468  22.4535 0011741 212.4490 147.5511 15.49498594500177"
      },
      "geometry": {
        "type": "Point",
        "coordinates": [
          0.5677689730210721,
          -10.894609811571739
        ]
      }
    }
  ]
}